OBJECT_NAME,OBJECT_ID,EPOCH,MEAN_MOTION,ECCENTRICITY,INCLINATION,RA_OF_ASC_NODE,ARG_OF_PERICENTER,MEAN_ANOMALY,EPHEMERIS_TYPE,CLASSIFICATION_TYPE,NORAD_CAT_ID,ELEMENT_SET_NO,REV_AT_EPOCH,BSTAR,MEAN_MOTION_DOT,MEAN_MOTION_DDOT
KUIPER-00606,2026-118Y,2026-06-10T05:41:24.396288,15.37642651,.00047767,51.8691,86.8530,126.9320,233.2105,0,U,69289,999,291,.53421205E-3,.19715E-3,0
KUIPER-00607,2026-118Z,2026-06-10T05:44:46.748544,15.37332484,.00065404,51.8672,86.8699,134.1420,226.0106,0,U,69290,999,291,.73352162E-3,.26976E-3,0
KUIPER-00608,2026-118AA,2026-06-10T05:55:57.279936,15.35708364,.00092467,51.8603,86.9174,150.8611,209.2893,0,U,69291,999,291,.38389787E-4,.966E-5,0
KUIPER-00610,2026-118AB,2026-06-10T05:35:47.402592,15.38190522,.00029951,51.8715,86.8232,116.9162,243.2131,0,U,69292,999,291,.97433894E-3,.37017E-3,0
KUIPER-00613,2026-118AC,2026-06-10T06:00:22.411296,15.35290331,.00104364,51.8629,86.9386,161.6056,198.5309,0,U,69293,999,291,.40824616E-3,.13867E-3,0
KUIPER-00618,2026-118AD,2026-06-10T05:31:50.277792,15.38437890,.00019806,51.8711,86.8049,72.5155,287.6049,0,U,69294,999,291,.3889182E-3,.14613E-3,0
KUIPER-00620,2026-118AE,2026-06-10T05:34:53.938272,15.38266616,.0003078,51.8710,86.8199,98.4194,261.7142,0,U,69295,999,291,.55172965E-3,.20797E-3,0
STARLINK-37501,2026-119A,2026-06-10T06:00:02.999808,15.79898874,.00008901,97.2843,186.6906,85.7654,297.3633,0,U,69296,999,277,.9051991E-3,.169445E-2,0
STARLINK-37496,2026-119B,2026-06-10T06:00:02.999808,15.79999656,.00007154,97.2844,186.6883,84.8177,295.5875,0,U,69297,999,277,-.88716859E-3,-.160877E-2,0
STARLINK-37519,2026-119C,2026-06-10T06:00:02.999808,15.80827572,.00011536,97.2843,186.6983,92.5062,309.6075,0,U,69298,999,277,-.12284741E-3,-.23621E-3,0
STARLINK-37455,2026-119D,2026-06-10T06:00:02.999808,15.79938988,.00011799,97.2843,186.6936,81.4347,308.5958,0,U,69299,999,277,.15627402E-4,.2737E-4,0
STARLINK-37456,2026-119E,2026-06-10T06:00:02.999808,15.80827489,.00008508,97.2841,186.7004,112.8086,293.7985,0,U,69300,999,277,-.1781958E-3,-.34158E-3,0
STARLINK-37630,2026-119F,2026-06-10T06:00:02.999808,15.78680409,.00013828,97.2843,186.7005,79.8360,327.9713,0,U,69301,999,293,-.15160677E-1,-.2292799E-1,0
STARLINK-37804,2026-119G,2026-06-10T06:00:02.999808,15.79128319,.00012971,97.2840,186.7004,108.4363,301.5089,0,U,69302,999,293,-.16717593E-1,-.2536601E-1,0
STARLINK-37730,2026-119H,2026-06-10T06:00:02.999808,15.80829102,.00007455,97.2840,186.7057,106.9873,312.3492,0,U,69303,999,293,-.19046113E-3,-.36492E-3,0
STARLINK-37731,2026-119J,2026-06-10T06:00:02.999808,15.79857835,.00015012,97.2840,186.7050,61.6722,358.0648,0,U,69304,999,293,-.16363526E-1,-.256279E-1,0
STARLINK-37734,2026-119K,2026-06-10T06:00:02.999808,15.80821962,.00008026,97.2838,186.7082,89.8715,335.4367,0,U,69305,999,293,-.11833151E-3,-.22754E-3,0
STARLINK-37701,2026-119L,2026-06-10T06:00:02.999808,15.80818330,.00008017,97.2839,186.7085,84.9539,341.8866,0,U,69306,999,293,-.37528855E-4,-.7325E-4,0
STARLINK-37732,2026-119M,2026-06-10T06:00:02.999808,15.80822527,.00013277,97.2838,186.7102,86.0471,343.1681,0,U,69307,999,293,-.54320263E-4,-.10537E-3,0
STARLINK-37689,2026-119N,2026-06-10T06:00:02.999808,15.80656883,.00016373,97.2839,186.7112,76.0510,359.8529,0,U,69308,999,293,-.15663932E-1,-.2548321E-1,0
STARLINK-37619,2026-119P,2026-06-10T06:00:02.999808,15.80837106,.0001517,97.2834,186.7140,96.4746,342.4600,0,U,69309,999,293,-.25325444E-3,-.48432E-3,0
STARLINK-37794,2026-119Q,2026-06-10T06:00:02.999808,15.80816929,.00008511,97.2835,186.7197,90.3958,1.2326,0,U,69310,999,293,.1306117E-5,.109E-5,0
STARLINK-37795,2026-119R,2026-06-10T06:00:02.999808,15.80544437,.00016669,97.2838,186.7190,77.5359,16.1049,0,U,69311,999,293,-.16287984E-1,-.2622087E-1,0
STARLINK-37790,2026-119S,2026-06-10T06:00:02.999808,15.80825676,.00012724,97.2834,186.7226,88.8119,10.2402,0,U,69312,999,293,-.91083825E-4,-.17561E-3,0
STARLINK-37676,2026-119T,2026-06-10T06:00:02.999808,15.80830963,.0000825,97.2837,186.7273,88.5690,21.9968,0,U,69313,999,293,-.20513977E-3,-.39284E-3,0
STARLINK-37617,2026-119U,2026-06-10T06:00:02.999808,15.80913387,.00014,97.2835,186.7288,90.5455,24.9507,0,U,69314,999,293,-.9916713E-3,-.186922E-2,0
STARLINK-37627,2026-119V,2026-06-10T06:00:02.999808,15.81000499,.00010464,97.2835,186.7298,77.2492,40.0327,0,U,69315,999,293,-.17903244E-2,-.333117E-2,0
STARLINK-37738,2026-119W,2026-06-10T06:00:02.999808,15.80841332,.00010479,97.2832,186.7247,84.7611,19.7910,0,U,69316,999,293,-.26755481E-3,-.5115E-3,0
STARLINK-37799,2026-119X,2026-06-10T06:00:02.999808,15.80848169,.00013123,97.2832,186.7285,101.1967,12.0720,0,U,69317,999,288,-.30090781E-3,-.57486E-3,0
STARLINK-37802,2026-119Y,2026-06-10T06:00:02.999808,15.81190977,.00011216,97.2833,186.7334,115.6739,8.9687,0,U,69318,999,293,-.32134869E-2,-.586097E-2,0
