KUIPER-00606            
1 69289U 26118Y   26161.23708792  .00019715  00000+0  53421-3 0  9996
2 69289  51.8691  86.8530 0004776 126.9320 233.2105 15.37642651  2911
KUIPER-00607            
1 69290U 26118Z   26161.23942996  .00026976  00000+0  73352-3 0  9996
2 69290  51.8672  86.8699 0006540 134.1420 226.0106 15.37332484  2912
KUIPER-00608            
1 69291U 26118AA  26161.24719074  .00000966  00000+0  38390-4 0  9992
2 69291  51.8603  86.9174 0009246 150.8611 209.2893 15.35708364  2917
KUIPER-00610            
1 69292U 26118AB  26161.23318753  .00037017  00000+0  97434-3 0  9991
2 69292  51.8715  86.8232 0002995 116.9162 243.2131 15.38190522  2911
KUIPER-00613            
1 69293U 26118AC  26161.25025939  .00013867  00000+0  40825-3 0  9994
2 69293  51.8629  86.9386 0010436 161.6056 198.5309 15.35290331  2910
KUIPER-00618            
1 69294U 26118AD  26161.23044303  .00014613  00000+0  38892-3 0  9990
2 69294  51.8711  86.8049 0001980  72.5155 287.6049 15.38437890  2919
KUIPER-00620            
1 69295U 26118AE  26161.23256873  .00020797  00000+0  55173-3 0  9999
2 69295  51.8710  86.8199 0003078  98.4194 261.7142 15.38266616  2918
STARLINK-37501          
1 69296U 26119A   26161.25003472  .00169445  00000+0  90520-3 0  9997
2 69296  97.2843 186.6906 0000890  85.7654 297.3633 15.79898874  2770
STARLINK-37496          
1 69297U 26119B   26161.25003472 -.00160877  00000+0 -88717-3 0  9995
2 69297  97.2844 186.6883 0000715  84.8177 295.5875 15.79999656  2770
STARLINK-37519          
1 69298U 26119C   26161.25003472 -.00023621  00000+0 -12285-3 0  9998
2 69298  97.2843 186.6983 0001153  92.5062 309.6075 15.80827572  2775
STARLINK-37455          
1 69299U 26119D   26161.25003472  .00002737  00000+0  15627-4 0  9996
2 69299  97.2843 186.6936 0001179  81.4347 308.5958 15.79938988  2775
STARLINK-37456          
1 69300U 26119E   26161.25003472 -.00034158  00000+0 -17820-3 0  9999
2 69300  97.2841 186.7004 0000850 112.8086 293.7985 15.80827489  2777
STARLINK-37630          
1 69301U 26119F   26161.25003472 -.02292799  00000+0 -15161-1 0  9993
2 69301  97.2843 186.7005 0001382  79.8360 327.9713 15.78680409  2932
STARLINK-37804          
1 69302U 26119G   26161.25003472 -.02536601  00000+0 -16718-1 0  9996
2 69302  97.2840 186.7004 0001297 108.4363 301.5089 15.79128319  2938
STARLINK-37730          
1 69303U 26119H   26161.25003472 -.00036492  00000+0 -19046-3 0  9997
2 69303  97.2840 186.7057 0000745 106.9873 312.3492 15.80829102  2931
STARLINK-37731          
1 69304U 26119J   26161.25003472 -.02562790  00000+0 -16364-1 0  9993
2 69304  97.2840 186.7050 0001501  61.6722 358.0648 15.79857835  2938
STARLINK-37734          
1 69305U 26119K   26161.25003472 -.00022754  00000+0 -11833-3 0  9991
2 69305  97.2838 186.7082 0000802  89.8715 335.4367 15.80821962  2939
STARLINK-37701          
1 69306U 26119L   26161.25003472 -.00007325  00000+0 -37529-4 0  9990
2 69306  97.2839 186.7085 0000801  84.9539 341.8866 15.80818330  2933
STARLINK-37732          
1 69307U 26119M   26161.25003472 -.00010537  00000+0 -54320-4 0  9998
2 69307  97.2838 186.7102 0001327  86.0471 343.1681 15.80822527  2938
STARLINK-37689          
1 69308U 26119N   26161.25003472 -.02548321  00000+0 -15664-1 0  9993
2 69308  97.2839 186.7112 0001637  76.0510 359.8529 15.80656883  2933
STARLINK-37619          
1 69309U 26119P   26161.25003472 -.00048432  00000+0 -25325-3 0  9997
2 69309  97.2834 186.7140 0001517  96.4746 342.4600 15.80837106  2931
STARLINK-37794          
1 69310U 26119Q   26161.25003472  .00000109  00000+0  13061-5 0  9992
2 69310  97.2835 186.7197 0000851  90.3958   1.2326 15.80816929  2939
STARLINK-37795          
1 69311U 26119R   26161.25003472 -.02622087  00000+0 -16288-1 0  9992
2 69311  97.2838 186.7190 0001666  77.5359  16.1049 15.80544437  2932
STARLINK-37790          
1 69312U 26119S   26161.25003472 -.00017561  00000+0 -91084-4 0  9996
2 69312  97.2834 186.7226 0001272  88.8119  10.2402 15.80825676  2936
STARLINK-37676          
1 69313U 26119T   26161.25003472 -.00039284  00000+0 -20514-3 0  9992
2 69313  97.2837 186.7273 0000825  88.5690  21.9968 15.80830963  2937
STARLINK-37617          
1 69314U 26119U   26161.25003472 -.00186922  00000+0 -99167-3 0  9995
2 69314  97.2835 186.7288 0001400  90.5455  24.9507 15.80913387  2938
STARLINK-37627          
1 69315U 26119V   26161.25003472 -.00333117  00000+0 -17903-2 0  9993
2 69315  97.2835 186.7298 0001046  77.2492  40.0327 15.81000499  2930
STARLINK-37738          
1 69316U 26119W   26161.25003472 -.00051150  00000+0 -26755-3 0  9994
2 69316  97.2832 186.7247 0001047  84.7611  19.7910 15.80841332  2938
STARLINK-37799          
1 69317U 26119X   26161.25003472 -.00057486  00000+0 -30091-3 0  9991
2 69317  97.2832 186.7285 0001312 101.1967  12.0720 15.80848169  2888
STARLINK-37802          
1 69318U 26119Y   26161.25003472 -.00586097  00000+0 -32135-2 0  9997
2 69318  97.2833 186.7334 0001121 115.6739   8.9687 15.81190977  2930
